start=new Date('2022-04-05T00:00:00.000Z').valueOf();
sats=[{"MEAN_MOTION_DOT":"0.00001830","PERIOD":"95.593","DECAY_DATE":null,"SEMIMAJOR_AXIS":"6925.406","REF_FRAME":"TEME","LAUNCH_DATE":"2020-10-06","REV_AT_EPOCH":"8316","ECCENTRICITY":"0.00013400","RA_OF_ASC_NODE":"139.9425","MEAN_MOTION_DDOT":"0.0000000000000","EPHEMERIS_TYPE":"0","SITE":"AFETR","MEAN_ELEMENT_THEORY":"SGP4","APOAPSIS":"548.199","PERIAPSIS":"546.343","OBJECT_NAME":"STARLINK-1696","CENTER_NAME":"EARTH","RCS_SIZE":"LARGE","OBJECT_TYPE":"PAYLOAD","COUNTRY_CODE":"US","TLE_LINE1":"1 46545U 20070P   22094.39006491  .00001830  00000-0  14177-3 0  9997","GP_ID":"200425665","TLE_LINE2":"2 46545  53.0537 139.9425 0001340  65.9619 294.1510 15.06381385 83166","CLASSIFICATION_TYPE":"U","ELEMENT_SET_NO":"999","INCLINATION":"53.0537","MEAN_ANOMALY":"294.1510","BSTAR":"0.00014177000000","EPOCH":"2022-04-04T09:21:41.608224","OBJECT_ID":"2020-070P","TIME_SYSTEM":"UTC","MEAN_MOTION":"15.06381385","ARG_OF_PERICENTER":"65.9619","NORAD_CAT_ID":"46545","FILE":"3387897"},{"BSTAR":"0.00004838600000","OBJECT_ID":"2020-070Q","EPOCH":"2022-04-04T20:09:14.743872","ELEMENT_SET_NO":"999","CLASSIFICATION_TYPE":"U","INCLINATION":"53.0539","MEAN_ANOMALY":"310.4548","TLE_LINE2":"2 46546  53.0539 137.9037 0001763  49.6594 310.4548 15.06381310 82942","COUNTRY_CODE":"US","TLE_LINE1":"1 46546U 20070Q   22094.83975398  .00000439  00000-0  48386-4 0  9992","GP_ID":"200438344","NORAD_CAT_ID":"46546","FILE":"3388397","ARG_OF_PERICENTER":"49.6594","MEAN_MOTION":"15.06381310","TIME_SYSTEM":"UTC","MEAN_MOTION_DDOT":"0.0000000000000","SITE":"AFETR","EPHEMERIS_TYPE":"0","LAUNCH_DATE":"2020-10-06","ECCENTRICITY":"0.00017630","RA_OF_ASC_NODE":"137.9037","REV_AT_EPOCH":"8294","REF_FRAME":"TEME","PERIOD":"95.593","MEAN_MOTION_DOT":"0.00000439","DECAY_DATE":null,"SEMIMAJOR_AXIS":"6925.406","RCS_SIZE":"LARGE","CENTER_NAME":"EARTH","OBJECT_TYPE":"PAYLOAD","PERIAPSIS":"546.050","OBJECT_NAME":"STARLINK-1697","APOAPSIS":"548.492","MEAN_ELEMENT_THEORY":"SGP4"},{"TLE_LINE2":"2 46547  53.0540 138.9658 0001540  58.7588 301.3552 15.06387179 83227","TLE_LINE1":"1 46547U 20070R   22094.60384885 -.00001828  00000-0 -10388-3 0  9998","GP_ID":"200438186","COUNTRY_CODE":"US","BSTAR":"-0.00010388000000","OBJECT_ID":"2020-070R","EPOCH":"2022-04-04T14:29:32.540640","ELEMENT_SET_NO":"999","CLASSIFICATION_TYPE":"U","MEAN_ANOMALY":"301.3552","INCLINATION":"53.0540","MEAN_MOTION":"15.06387179","TIME_SYSTEM":"UTC","NORAD_CAT_ID":"46547","FILE":"3388401","ARG_OF_PERICENTER":"58.7588","REF_FRAME":"TEME","PERIOD":"95.593","MEAN_MOTION_DOT":"-0.00001828","DECAY_DATE":null,"SEMIMAJOR_AXIS":"6925.388","MEAN_MOTION_DDOT":"0.0000000000000","SITE":"AFETR","EPHEMERIS_TYPE":"0","LAUNCH_DATE":"2020-10-06","RA_OF_ASC_NODE":"138.9658","ECCENTRICITY":"0.00015400","REV_AT_EPOCH":"8322","APOAPSIS":"548.319","MEAN_ELEMENT_THEORY":"SGP4","RCS_SIZE":"LARGE","CENTER_NAME":"EARTH","OBJECT_TYPE":"PAYLOAD","PERIAPSIS":"546.186","OBJECT_NAME":"STARLINK-1698"},{"TLE_LINE2":"2 46548  53.0536 138.0299 0001410  60.3143 299.7987 15.06381105 83255","TLE_LINE1":"1 46548U 20070S   22094.81394909 -.00000114  00000-0  11231-4 0  9995","COUNTRY_CODE":"US","GP_ID":"200438183","INCLINATION":"53.0536","MEAN_ANOMALY":"299.7987","CLASSIFICATION_TYPE":"U","ELEMENT_SET_NO":"999","OBJECT_ID":"2020-070S","EPOCH":"2022-04-04T19:32:05.201376","BSTAR":"0.00001123100000","TIME_SYSTEM":"UTC","MEAN_MOTION":"15.06381105","ARG_OF_PERICENTER":"60.3143","FILE":"3388401","NORAD_CAT_ID":"46548","SEMIMAJOR_AXIS":"6925.406","DECAY_DATE":null,"PERIOD":"95.593","MEAN_MOTION_DOT":"-0.00000114","REF_FRAME":"TEME","RA_OF_ASC_NODE":"138.0299","ECCENTRICITY":"0.00014100","REV_AT_EPOCH":"8325","LAUNCH_DATE":"2020-10-06","EPHEMERIS_TYPE":"0","SITE":"AFETR","MEAN_MOTION_DDOT":"0.0000000000000","MEAN_ELEMENT_THEORY":"SGP4","APOAPSIS":"548.248","OBJECT_NAME":"STARLINK-1699","PERIAPSIS":"546.295","OBJECT_TYPE":"PAYLOAD","RCS_SIZE":"LARGE","CENTER_NAME":"EARTH"},{"APOAPSIS":"548.376","MEAN_ELEMENT_THEORY":"SGP4","OBJECT_TYPE":"PAYLOAD","CENTER_NAME":"EARTH","RCS_SIZE":"LARGE","OBJECT_NAME":"STARLINK-1700","PERIAPSIS":"546.146","REF_FRAME":"TEME","DECAY_DATE":null,"SEMIMAJOR_AXIS":"6925.396","MEAN_MOTION_DOT":"0.00001746","PERIOD":"95.593","SITE":"AFETR","EPHEMERIS_TYPE":"0","MEAN_MOTION_DDOT":"0.0000000000000","REV_AT_EPOCH":"8294","RA_OF_ASC_NODE":"137.8830","ECCENTRICITY":"0.00016100","LAUNCH_DATE":"2020-10-06","MEAN_MOTION":"15.06384680","TIME_SYSTEM":"UTC","FILE":"3388250","NORAD_CAT_ID":"46549","ARG_OF_PERICENTER":"65.3537","TLE_LINE1":"1 46549U 20070T   22094.84343673  .00001746  00000-0  13613-3 0  9997","GP_ID":"200435389","COUNTRY_CODE":"US","TLE_LINE2":"2 46549  53.0520 137.8830 0001610  65.3537 294.7619 15.06384680 82944","EPOCH":"2022-04-04T20:14:32.933472","OBJECT_ID":"2020-070T","BSTAR":"0.00013613000000","MEAN_ANOMALY":"294.7619","INCLINATION":"53.0520","ELEMENT_SET_NO":"999","CLASSIFICATION_TYPE":"U"},{"CENTER_NAME":"EARTH","RCS_SIZE":"LARGE","OBJECT_TYPE":"PAYLOAD","PERIAPSIS":"546.026","OBJECT_NAME":"STARLINK-1701","APOAPSIS":"548.473","MEAN_ELEMENT_THEORY":"SGP4","MEAN_MOTION_DDOT":"0.0000000000000","EPHEMERIS_TYPE":"0","SITE":"AFETR","LAUNCH_DATE":"2020-10-06","REV_AT_EPOCH":"8317","RA_OF_ASC_NODE":"139.7498","ECCENTRICITY":"0.00017670","REF_FRAME":"TEME","MEAN_MOTION_DOT":"0.00001514","PERIOD":"95.593","DECAY_DATE":null,"SEMIMAJOR_AXIS":"6925.385","NORAD_CAT_ID":"46550","FILE":"3387897","ARG_OF_PERICENTER":"48.6149","MEAN_MOTION":"15.06388224","TIME_SYSTEM":"UTC","BSTAR":"0.00012055000000","EPOCH":"2022-04-04T10:20:04.806816","OBJECT_ID":"2020-070U","CLASSIFICATION_TYPE":"U","ELEMENT_SET_NO":"999","MEAN_ANOMALY":"311.4991","INCLINATION":"53.0534","COUNTRY_CODE":"US","TLE_LINE1":"1 46550U 20070U   22094.43061119  .00001514  00000-0  12055-3 0  9998","GP_ID":"200424150","TLE_LINE2":"2 46550  53.0534 139.7498 0001767  48.6149 311.4991 15.06388224 83172"},{"TIME_SYSTEM":"UTC","MEAN_MOTION":"15.06393109","ARG_OF_PERICENTER":"51.8614","FILE":"3388370","NORAD_CAT_ID":"46552","TLE_LINE2":"2 46552  53.0524 123.1327 0001457  51.8614 308.2506 15.06393109 83387","COUNTRY_CODE":"US","TLE_LINE1":"1 46552U 20070W   22094.78768317  .00003608  00000-0  26101-3 0  9995","GP_ID":"200437620","MEAN_ANOMALY":"308.2506","INCLINATION":"53.0524","ELEMENT_SET_NO":"999","CLASSIFICATION_TYPE":"U","OBJECT_ID":"2020-070W","EPOCH":"2022-04-04T18:54:15.825888","BSTAR":"0.00026101000000","MEAN_ELEMENT_THEORY":"SGP4","APOAPSIS":"548.244","OBJECT_NAME":"STARLINK-1649","PERIAPSIS":"546.226","OBJECT_TYPE":"PAYLOAD","RCS_SIZE":"LARGE","CENTER_NAME":"EARTH","DECAY_DATE":null,"SEMIMAJOR_AXIS":"6925.370","PERIOD":"95.593","MEAN_MOTION_DOT":"0.00003608","REF_FRAME":"TEME","RA_OF_ASC_NODE":"123.1327","ECCENTRICITY":"0.00014570","REV_AT_EPOCH":"8338","LAUNCH_DATE":"2020-10-06","SITE":"AFETR","EPHEMERIS_TYPE":"0","MEAN_MOTION_DDOT":"0.0000000000000"},{"APOAPSIS":"548.232","MEAN_ELEMENT_THEORY":"SGP4","OBJECT_TYPE":"PAYLOAD","CENTER_NAME":"EARTH","RCS_SIZE":"LARGE","OBJECT_NAME":"STARLINK-1664","PERIAPSIS":"546.178","REF_FRAME":"TEME","DECAY_DATE":null,"SEMIMAJOR_AXIS":"6925.340","MEAN_MOTION_DOT":"0.00002564","PERIOD":"95.592","SITE":"AFETR","EPHEMERIS_TYPE":"0","MEAN_MOTION_DDOT":"0.0000000000000","REV_AT_EPOCH":"8360","ECCENTRICITY":"0.00014830","RA_OF_ASC_NODE":"109.5068","LAUNCH_DATE":"2020-10-06","MEAN_MOTION":"15.06402933","TIME_SYSTEM":"UTC","FILE":"3387897","NORAD_CAT_ID":"46553","ARG_OF_PERICENTER":"54.4847","TLE_LINE1":"1 46553U 20070X   22094.48402061  .00002564  00000-0  19094-3 0  9997","COUNTRY_CODE":"US","GP_ID":"200424420","TLE_LINE2":"2 46553  53.0532 109.5068 0001483  54.4847 305.6280 15.06402933 83604","EPOCH":"2022-04-04T11:36:59.380704","OBJECT_ID":"2020-070X","BSTAR":"0.00019094000000","MEAN_ANOMALY":"305.6280","INCLINATION":"53.0532","ELEMENT_SET_NO":"999","CLASSIFICATION_TYPE":"U"},{"TIME_SYSTEM":"UTC","MEAN_MOTION":"15.06391757","ARG_OF_PERICENTER":"70.4808","FILE":"3388379","NORAD_CAT_ID":"46554","TLE_LINE2":"2 46554  53.0515 123.0698 0001425  70.4808 289.6335 15.06391757 83453","TLE_LINE1":"1 46554U 20070Y   22094.80243142  .00012660  00000-0  86749-3 0  9996","GP_ID":"200437847","COUNTRY_CODE":"US","INCLINATION":"53.0515","MEAN_ANOMALY":"289.6335","ELEMENT_SET_NO":"999","CLASSIFICATION_TYPE":"U","OBJECT_ID":"2020-070Y","EPOCH":"2022-04-04T19:15:30.074688","BSTAR":"0.00086749000000","MEAN_ELEMENT_THEORY":"SGP4","APOAPSIS":"548.226","OBJECT_NAME":"STARLINK-1671","PERIAPSIS":"546.252","OBJECT_TYPE":"PAYLOAD","RCS_SIZE":"LARGE","CENTER_NAME":"EARTH","DECAY_DATE":null,"SEMIMAJOR_AXIS":"6925.374","PERIOD":"95.593","MEAN_MOTION_DOT":"0.00012660","REF_FRAME":"TEME","RA_OF_ASC_NODE":"123.0698","ECCENTRICITY":"0.00014250","REV_AT_EPOCH":"8345","LAUNCH_DATE":"2020-10-06","SITE":"AFETR","EPHEMERIS_TYPE":"0","MEAN_MOTION_DDOT":"0.0000000000000"},{"APOAPSIS":"548.327","MEAN_ELEMENT_THEORY":"SGP4","RCS_SIZE":"LARGE","CENTER_NAME":"EARTH","OBJECT_TYPE":"PAYLOAD","PERIAPSIS":"546.198","OBJECT_NAME":"STARLINK-1676","REF_FRAME":"TEME","PERIOD":"95.593","MEAN_MOTION_DOT":"0.00002142","SEMIMAJOR_AXIS":"6925.398","DECAY_DATE":null,"MEAN_MOTION_DDOT":"0.0000000000000","EPHEMERIS_TYPE":"0","SITE":"AFETR","LAUNCH_DATE":"2020-10-06","RA_OF_ASC_NODE":"139.6024","ECCENTRICITY":"0.00015370","REV_AT_EPOCH":"8318","MEAN_MOTION":"15.06383974","TIME_SYSTEM":"UTC","NORAD_CAT_ID":"46556","FILE":"3387897","ARG_OF_PERICENTER":"60.4435","TLE_LINE2":"2 46556  53.0528 139.6024 0001537  60.4435 299.6707 15.06383974 83180","COUNTRY_CODE":"US","TLE_LINE1":"1 46556U 20070AA  22094.46377682  .00002142  00000-0  16273-3 0  9996","GP_ID":"200424650","BSTAR":"0.00016273000000","OBJECT_ID":"2020-070AA","EPOCH":"2022-04-04T11:07:50.317248","CLASSIFICATION_TYPE":"U","ELEMENT_SET_NO":"999","MEAN_ANOMALY":"299.6707","INCLINATION":"53.0528"}];
